#dP2020  9 17  0  0  0.00000000      97 __u+U IGS14 FIT  IAC
## 2123 345600.00000000   900.00000000 59109 0.0000000000000
+  118   C02C03C04C05C06C07C08C09C10C11C12C13C14C16C19C20C21
+        C22C23C24C25C26C27C28C29C30C32C33C34C35C36C37C38C39
+        C40C43C44C45C46E01E02E03E04E05E07E08E09E11E12E13E14
+        E15E18E19E21E24E25E26E27E30E31E33E36G01G02G03G04G05
+        G06G07G08G09G10G11G12G13G15G16G17G18G19G20G21G22G24
+        G25G26G27G28G29G30G31G32J01J02J03R01R02R03R04R05R07
+        R08R11R12R13R14R15R16R17R18R19R20R21R22R23R24R26  0
++        13 13 14 12  8  8  8  8  8  7  8  7  7  8  7  7  8
++         7  7  8  7  8  7  7  8  7  8  7  8  8  8  8  9  9
++         9  8  9  9  9  4  4  4  4  4  4  4  4  4  4  4  4
++         4  4  4  4  4  4  4  4  4  4  4  4  3  3  3  4  3
++         3  3  3  3  3  3  3  4  3  3  3  3  3  3  3  3  3
++         3  3  3  3  3  3  3  3  9  8  9  6  5  5  5  5  5
++         5  5  5  6  5  5  6  5  5  6  6  5  6  5  5  8  0
%c M  cc GPS ccc cccc cccc cccc cccc ccccc ccccc ccccc ccccc
%c cc cc ccc ccc cccc cccc cccc cccc ccccc ccccc ccccc ccccc
%f  1.2500000  1.025000000  0.00000000000  0.000000000000000
%f  0.0000000  0.000000000  0.00000000000  0.000000000000000
%i    0    0    0    0      0      0      0      0         0
%i    0    0    0    0      0      0      0      0         0
/* INFORMATION & ANALYSIS CENTER (IAC)            FINAL DATA
/* S/V CLOCKS ARE ALIGNED TO GNSS TIME                      
/* G:C1WC2W R:C1PC2P E:C1XC5X C:C2IC6I J:C1CC2S             
/* PCV:IGS14_2118 OL/AL:FES2004  NONE     YN ORB:CoN CLK:CoN
*  2020 09 17  2  0  0.00000000
PC02   4338.910633  41955.049125    410.314004    831.865135
PC03 -14840.427661  39436.680494   1150.468898    796.656673
PC04 -39572.726853  14467.651752    546.842094    287.184332
PC05  21901.002760  36041.712990    316.331410   -259.870188
PC06 -25182.179686  27208.104035 -20064.003363      0.011491
PC07 -12932.916404  36652.374959 -15422.489806    -18.947079
PC08  -8398.560749  20191.388304  36152.942822   -531.061099
PC09 -10820.812195  27419.581507 -30035.377329    814.872133
PC10  -2745.330971  41705.147059  -2984.559790   -185.053677
PC11 -11664.360885 -12346.380631 -22070.690170   -625.637213
PC12   9203.729312 -16062.678878 -20861.603951    513.633383
PC13   5668.417209  27854.277503  31314.930505    650.854332
PC14  -5672.104073 -21625.430972  16757.019094    168.466794
PC16 -21182.603267  27925.844526 -23476.986164   -589.662995
PC19  11632.848111  13292.112759 -21581.998687    548.934042
PC20   -395.556601  25934.287915 -10246.678043   -844.202534
PC21  12739.521744 -23623.648594  -7673.949070   -679.294929
PC22  17245.907825  -7391.778358 -20669.610690   -766.096055
PC23 -20590.596823  -2867.641894 -18601.460498   -865.503359
PC24  -8185.704540 -23084.608470  13358.234262   -727.355381
PC25 -21164.990813 -17677.792718  -4211.105094   -759.351627
PC26   7714.038680 -14878.199948  22308.740963    833.026308
PC27 -18617.880943  14465.139863  14920.577911    400.230941
PC28 -27468.323026   4525.466403  -1828.313169   -169.354120
PC29  20539.715823   7261.792161  17435.785572    284.884065
PC30   1285.834769  15970.763700  22845.559224    376.797054
PC32 -12588.074974  23676.814849   7714.459380   -904.949904
PC33 -11678.651993 -13359.253810  21542.018640   -798.380600
PC34  -1925.613355 -15885.732624 -22868.732331   -852.996849
PC35  27305.622463  -5310.194108   2040.751544   -650.645177
PC36  20686.320510  18299.423200   4013.868200   -918.772300
PC37  -8624.822983  14172.074801 -22412.216274   -924.195051
PC38  -6515.956885  23787.925915  34209.004370    100.889518
PC39 -18656.502098  29350.437465 -23922.721926     22.499338
PC40  -8103.371621  40920.449204  -5387.325360     81.880174
PC43 -20244.771048  -7696.611187 -17610.869747 999999.999999
PC44  18238.386939 -15099.443798 -14754.020535   -215.986774
PC45  20529.911732   2833.751520  18710.496202    232.630741
PC46   8910.969774  23116.134479 -12857.021873    635.428660
PE01  -7276.166683  21005.617980 -19532.980509   -942.345550
PE02   7221.220799 -21080.566584  19488.167344    162.189612
PE03  18223.910404 -23094.435832   3356.999930   -343.681102
PE04  -2329.474651  22434.386632 -19164.953873   -608.625395
PE05  23628.097045 -10204.323826 -14626.976874   -345.489602
PE07 -15189.742850  -8544.517139  23927.854702   -437.000159
PE08   2051.944313 -22275.781516  19392.163341   6119.592074
PE09  15243.756743   8216.814470 -24006.869606   5928.455497
PE11  25289.564945  12000.612639   9606.279379   5563.549494
PE12   7111.624782  17095.070092  23090.460896   5601.833069
PE13 -25180.549629 -12008.848264  -9885.621136    403.717310
PE14 -18944.901510 -10767.073677 -22804.256129  -1158.455278
PE15  -7393.814847 -16995.867757 -23074.165432    852.208649
PE18  22478.593953  -1170.376572  11869.875966  -1265.961523
PE19 -19469.329835  22260.213855  -1254.951844     80.349810
PE21 -16649.592835   1534.958863 -24417.720398   -621.821584
PE24  16371.559332  19723.655997  14814.379375   5240.144823
PE25  16697.422363  -1375.365013  24416.167023   -516.737086
PE26 -28003.012669    299.069203   9565.827996   2717.776547
PE27 -16555.534518 -19293.019628 -15148.228089    132.545406
PE30  -6232.618188 -28724.050566   3470.891056   3578.623275
PE31   6760.741335  28664.092145  -2931.308167   -474.179938
PE33 -14725.333263  11996.856963  22702.902121   -462.770994
PE36  28169.121069    -27.399822  -9101.701087    506.482629
PG01 -21586.837119 -14992.819562  -5146.710199     35.944894
PG02   4000.302521  17217.680932  20479.689891   -517.451632
PG03 -12569.151961 -16162.647391  16895.394476   -301.176867
PG04 -16749.108641  -5971.951725  19747.999025   -136.728620
PG05   2096.838021  26368.460351    333.859833    -21.271922
PG06 -11260.576595  10565.985385  21666.028697   -326.282811
PG07 -24203.681427  -4247.107358 -10353.730512   -374.110541
PG08  -7146.179633 -13265.744267 -21850.667189    -48.243746
PG09 -23012.718738   5134.747869  12185.533684   -287.120330
PG10  11968.911131 -14556.460697 -18524.942361   -456.544801
PG11 -15947.871878 -13054.379317 -17043.778195   -162.263969
PG12  10455.885335  18408.026070  15898.113206     66.232481
PG13  -2746.234165  16907.368597 -20395.942632     45.994204
PG15   9780.957414  12743.201926 -21483.011779   -203.167346
PG16   -539.373471 -26236.400975  -2135.235522   -210.111056
PG17 -21087.026645  15577.011599   4539.241515    326.983616
PG18  23582.129938   3328.056276 -11819.828123    291.536658
PG19 -17445.913939  16840.579162  10469.184524   -103.894239
PG20  15695.735000  -2069.533481 -21409.114144    526.712517
PG21  -3217.196844 -16606.365164 -19831.886069     47.945075
PG22 -11124.526277 -21874.195593  10547.830324   -753.639533
PG24  20483.128416  15276.354317  -8136.582985    -18.629549
PG25  14861.984057   6426.030982  20865.981627     50.186887
PG26   5978.080838 -23194.539436  11188.411842    280.074613
PG27   4746.826799 -18208.818078 -18749.203744   -397.353439
PG28 -12156.486730  15781.833906 -17062.382578    677.943616
PG29  22011.603267  -1033.637191  14823.549462   -196.341537
PG30 -19103.161150   4564.892948 -17922.791348   -303.153528
PG31  10023.739729 -11844.225001  21541.220654    -69.176680
PG32  19837.754234 -16974.605695   4495.326286    347.176762
PJ01 -31018.600495  26935.713114  14367.164080   -346.543861
PJ02 -20002.524654  22323.451487 -25171.534825     -3.795883
PJ03 -30628.178805  27115.928150  15224.064902     -1.177147
PR01  12242.888839 -22294.858674  -2029.749187     67.681433
PR02    316.058585 -18397.185154  17673.355244    445.936108
PR03 -10616.537545  -3316.040635  22994.583477     22.163683
PR04 -15242.080970  13540.457500  15354.873530     54.816701
PR05 -11503.886812  22760.017905   -962.479742     57.702566
PR07  10836.664162   2785.131133 -22889.059046    -40.157745
PR08  15293.462585 -13524.310521 -15232.410889    -54.602963
PR11  11442.818987  -2591.531617  22667.069148    -37.916826
PR12    123.966446 -16799.680176  19222.120729    164.404093
PR13 -11804.110193 -22136.671768   4625.453140    -43.959886
PR14 -16581.001482 -14459.969291 -12905.528789     55.619343
PR15 -11777.525771   1504.665795 -22548.208335    106.982105
PR16    730.922180  17424.495087 -18680.044464     -6.397033
PR17 -22615.825194  -4162.301822 -10981.164895    358.739476
PR18 -24592.543236   3472.441976   5922.180316     49.633680
PR19 -14125.998441   8742.061183  19348.047209   -111.503173
PR20   7135.170483   9903.872407  22396.523386   -421.959681
PR21  23168.115192   3732.741849  10041.918848   -152.690590
PR22  24139.124640  -3874.424729  -7142.494007    -73.238973
PR23   6559.684345 -10231.488472 -22438.590870    332.467920
PR24  -8023.193255 -10168.251951 -21956.843329     13.568964
PR26   1512.347731  10369.054450  23265.610727   -361.767785
EOF
